[{"OBJECT_NAME":"NUSAT-44 (MARIA MITCHELL)","OBJECT_ID":"2024-043AA","EPOCH":"2026-03-09T22:12:18.524160","MEAN_MOTION":15.29764305,"ECCENTRICITY":0.0007331,"INCLINATION":97.5299,"RA_OF_ASC_NODE":207.7691,"ARG_OF_PERICENTER":214.9017,"MEAN_ANOMALY":145.1743,"EPHEMERIS_TYPE":0,"CLASSIFICATION_TYPE":"U","NORAD_CAT_ID":59122,"ELEMENT_SET_NO":999,"REV_AT_EPOCH":11209,"BSTAR":0.00061063193,"MEAN_MOTION_DOT":0.00017562,"MEAN_MOTION_DDOT":0},{"OBJECT_NAME":"STARLINK-31690","OBJECT_ID":"2024-076T","EPOCH":"2026-03-09T03:50:02.129568","MEAN_MOTION":15.27566842,"ECCENTRICITY":0.00010797,"INCLINATION":43.0064,"RA_OF_ASC_NODE":11.8152,"ARG_OF_PERICENTER":265.0084,"MEAN_ANOMALY":95.0645,"EPHEMERIS_TYPE":0,"CLASSIFICATION_TYPE":"U","NORAD_CAT_ID":59581,"ELEMENT_SET_NO":999,"REV_AT_EPOCH":10643,"BSTAR":-6.8074551e-5,"MEAN_MOTION_DOT":-2.134e-5,"MEAN_MOTION_DDOT":0}]
